1998-067XU              
1 66908U 98067XU  26024.73143911  .00107534  00000+0  13800-2 0  9995
2 66908  51.6284 287.8746 0003159 113.2223 246.9102 15.58285977  8303
SILVERSAT               
1 66909U 98067XV  26025.74278947  .00133254  00000+0  16229-2 0  9992
2 66909  51.6287 282.6285 0003431 134.2416 225.8859 15.59561220  8469
1998-067XW              
1 66910U 98067XW  26025.74826604  .00109918  00000+0  13849-2 0  9998
2 66910  51.6280 282.6623 0001831 113.0215 247.0971 15.58765438  8461
1998-067XX              
1 66911U 98067XX  26025.72273876  .00145822  00000+0  17038-2 0  9992
2 66911  51.6272 282.4918 0002379 146.7804 213.3339 15.60599578  8459
1998-067XY              
1 66912U 98067XY  26025.72425470  .00086137  00000+0  11829-2 0  9997
2 66912  51.6294 283.2555 0002762  98.5884 261.5420 15.56575804  8444
